SCD 1                   
1 22490U 93009B   26160.00768519  .00000360  00000+0  47833-4 0  9996
2 22490  24.9691 258.0824 0042134  51.6277 297.6347 14.46116003759927
TECHSAT 1B (GO-32)      
1 25397U 98043D   26159.91619811  .00000065  00000+0  48402-4 0  9991
2 25397  99.0065 152.4663 0000582 185.4157 174.7015 14.24426823450156
SCD 2                   
1 25504U 98060A   26160.18116897  .00000380  00000+0  55347-4 0  9993
2 25504  24.9940 121.5303 0016890  39.3897 147.1207 14.45522670459167
DLR-TUBSAT              
1 25757U 99029B   26159.88881895  .00000100  00000+0  36292-4 0  9999
2 25757  98.6694 155.1198 0014577  20.0978 340.0787 14.52424727432040
TERRA                   
1 25994U 99068A   26160.14636836  .00000337  00000+0  77614-4 0  9994
2 25994  97.9459 210.0112 0000997 226.6941 217.2265 14.61096650408438
MAROC-TUBSAT            
1 27004U 01056D   26160.12668154 -.00000017  00000+0  33968-4 0  9994
2 27004  99.8079 336.8345 0020071 161.5114 311.1345 13.70262079225080
AQUA                    
1 27424U 02022A   26160.18978917  .00000722  00000+0  15345-3 0  9991
2 27424  98.4273 129.3131 0001425  53.8657  35.6396 14.62145858282109
SHIYAN-1 (SY-1)         
1 28220U 04012A   26159.76697073  .00014026  00000+0  43461-3 0  9992
2 28220  97.8687 237.2897 0006289  59.7462 300.4401 15.33546925209801
AURA                    
1 28376U 04026A   26160.11186462  .00000719  00000+0  15528-3 0  9992
2 28376  98.3414 116.4986 0001314  71.6877 288.4467 14.61316779165036
IRS-P5 (CARTOSAT-1)     
1 28649U 05017A   26160.02522047  .00001273  00000+0  13396-3 0  9996
2 28649  97.5309 183.4601 0002630  90.6376 269.5145 14.91027575142605
SINAH 1                 
1 28893U 05043D   26160.12679625  .00000284  00000+0  63374-4 0  9995
2 28893  98.2850 294.4019 0013303 304.4391  55.5553 14.64152207 99342
RESURS-DK 1             
1 29228U 06021A   26159.97067451  .00002399  00000+0  14091-3 0  9994
2 29228  69.9339   0.8220 0006510 298.3074  61.7435 15.13181097101331
ARIRANG-2 (KOMPSAT-2)   
1 29268U 06031A   26160.25343100  .00000263  00000+0  57895-4 0  9998
2 29268  97.8313 345.0844 0015883  97.2512  79.3710 14.64654943 60312
LAPAN-TUBSAT            
1 29709U 07001A   26160.24109972  .00000945  00000+0  11480-3 0  9998
2 29709  98.1348 159.2864 0011216 206.0125 154.0527 14.85945293 49977
HAIYANG-1B              
1 31113U 07010A   26160.17389927  .00000085  00000+0  48074-4 0  9997
2 31113  98.3490 142.3300 0012563 221.3114 138.7120 14.31024859999486
COSMO-SKYMED 1          
1 31598U 07023A   26160.18128682  .00001765  00000+0  15832-3 0  9999
2 31598  97.8856 351.9709 0001089  82.1946 277.9399 14.97062779 28595
TERRASAR-X              
1 31698U 07026A   26159.49711260  .00000709  00000+0  36934-4 0  9999
2 31698  97.4450 167.3291 0001701  82.8468 277.2960 15.19149352 51900
WORLDVIEW-1 (WV-1)      
1 32060U 07041A   26160.15156478  .00005392  00000+0  22434-3 0  9991
2 32060  97.3862 280.0121 0002986  43.6566 316.4908 15.24176916 41656
YAOGAN-3                
1 32289U 07055A   26160.20708203  .00001334  00000+0  14146-3 0  9997
2 32289  97.8159 190.1639 0001843  84.1464 275.9964 14.90748644  4684
COSMO-SKYMED 2          
1 32376U 07059A   26160.19478763  .00000342  00000+0  49490-4 0  9990
2 32376  97.8885 343.9089 0001424  84.7301 275.4075 14.82148166   829
RADARSAT-2              
1 32382U 07061A   26160.20107567  .00000150  00000+0  75151-4 0  9993
2 32382  98.5782 167.2476 0001308  82.0971 278.0360 14.29983637964817
CARTOSAT-2A             
1 32783U 08021A   26160.19982535  .00000542  00000+0  79652-4 0  9994
2 32783  97.7636 209.1811 0012754 132.2457 227.9839 14.79226892977629
HUANJING 1A (HJ-1A)     
1 33320U 08041A   26160.20981458  .00001322  00000+0  16460-3 0  9993
2 33320  97.6686 146.3575 0019243 159.7782 200.4199 14.83970232957223
HUANJING 1B (HJ-1B)     
1 33321U 08041B   26160.24274155  .00000332  00000+0  46431-4 0  9999
2 33321  97.6521 149.5844 0035293 207.6128 152.3213 14.83301614957231
GEOEYE 1                
1 33331U 08042A   26160.09096270  .00000397  00000+0  83486-4 0  9996
2 33331  98.1235 234.1246 0005567  88.8971 271.2870 14.64718086948967
THEOS                   
1 33396U 08049A   26160.21871961  .00000160  00000+0  94885-4 0  9999
2 33396  98.5571 217.7609 0001266  79.4003 280.7317 14.20132278916836
COSMO-SKYMED 3          
1 33412U 08054A   26160.17495299  .00001232  00000+0  86802-4 0  9996
2 33412  97.8291  18.6130 0014316 297.2196  62.7572 15.06896636955739
YAOGAN-4                
1 33446U 08061A   26160.13896961  .00000889  00000+0  11531-3 0  9991
2 33446  97.9307  93.7089 0015748  96.2000 264.1008 14.83184447944478
GOSAT (IBUKI)           
1 33492U 09002A   26160.02468338  .00001023  00000+0  18885-3 0  9999
2 33492  98.0882 271.2083 0001610  90.3117 269.8272 14.67538513930269
DEIMOS-1                
1 35681U 09041A   26160.18276584  .00000130  00000+0  26254-4 0  9999
2 35681  97.7400 317.7580 0001145 138.3723 221.7574 14.75227652905701
DUBAISAT-1              
1 35682U 09041B   26160.08486559  .00000707  00000+0  11225-3 0  9995
2 35682  98.0042 293.4321 0011747  96.7289 263.5257 14.75110815903908
