OBJECT_NAME,OBJECT_ID,EPOCH,MEAN_MOTION,ECCENTRICITY,INCLINATION,RA_OF_ASC_NODE,ARG_OF_PERICENTER,MEAN_ANOMALY,EPHEMERIS_TYPE,CLASSIFICATION_TYPE,NORAD_CAT_ID,ELEMENT_SET_NO,REV_AT_EPOCH,BSTAR,MEAN_MOTION_DOT,MEAN_MOTION_DDOT
SCD 1,1993-009B,2026-06-09T00:11:04.000416,14.46116003,.0042134,24.9691,258.0824,51.6277,297.6347,0,U,22490,999,75992,.47833E-4,.36E-5,0
TECHSAT 1B (GO-32),1998-043D,2026-06-08T21:59:19.516704,14.24426823,.0000582,99.0065,152.4663,185.4157,174.7015,0,U,25397,999,45015,.48402E-4,.65E-6,0
SCD 2,1998-060A,2026-06-09T04:20:52.999008,14.45522670,.001689,24.9940,121.5303,39.3897,147.1207,0,U,25504,999,45916,.55347E-4,.38E-5,0
DLR-TUBSAT,1999-029B,2026-06-08T21:19:53.957280,14.52424727,.0014577,98.6694,155.1198,20.0978,340.0787,0,U,25757,999,43204,.36292E-4,.1E-5,0
TERRA,1999-068A,2026-06-09T03:30:46.226304,14.61096650,.0000997,97.9459,210.0112,226.6941,217.2265,0,U,25994,999,40843,.77614E-4,.337E-5,0
MAROC-TUBSAT,2001-056D,2026-06-09T03:02:25.285056,13.70262079,.0020071,99.8079,336.8345,161.5114,311.1345,0,U,27004,999,22508,.33968E-4,-.17E-6,0
AQUA,2002-022A,2026-06-09T04:33:17.784288,14.62145858,.0001425,98.4273,129.3131,53.8657,35.6396,0,U,27424,999,28210,.15345E-3,.722E-5,0
SHIYAN-1 (SY-1),2004-012A,2026-06-08T18:24:26.271072,15.33546925,.0006289,97.8687,237.2897,59.7462,300.4401,0,U,28220,999,20980,.43461E-3,.14026E-3,0
AURA,2004-026A,2026-06-09T02:41:05.103168,14.61316779,.0001314,98.3414,116.4986,71.6877,288.4467,0,U,28376,999,16503,.15528E-3,.719E-5,0
IRS-P5 (CARTOSAT-1),2005-017A,2026-06-09T00:36:19.048608,14.91027575,.000263,97.5309,183.4601,90.6376,269.5145,0,U,28649,999,14260,.13396E-3,.1273E-4,0
SINAH 1,2005-043D,2026-06-09T03:02:35.196000,14.64152207,.0013303,98.2850,294.4019,304.4391,55.5553,0,U,28893,999,9934,.63374E-4,.284E-5,0
RESURS-DK 1,2006-021A,2026-06-08T23:17:46.277664,15.13181097,.000651,69.9339,0.8220,298.3074,61.7435,0,U,29228,999,10133,.14091E-3,.2399E-4,0
ARIRANG-2 (KOMPSAT-2),2006-031A,2026-06-09T06:04:56.438400,14.64654943,.0015883,97.8313,345.0844,97.2512,79.3710,0,U,29268,999,6031,.57895E-4,.263E-5,0
LAPAN-TUBSAT,2007-001A,2026-06-09T05:47:11.015808,14.85945293,.0011216,98.1348,159.2864,206.0125,154.0527,0,U,29709,999,4997,.1148E-3,.945E-5,0
HAIYANG-1B,2007-010A,2026-06-09T04:10:24.896928,14.31024859,.0012563,98.3490,142.3300,221.3114,138.7120,0,U,31113,999,99948,.48074E-4,.85E-6,0
COSMO-SKYMED 1,2007-023A,2026-06-09T04:21:03.181248,14.97062779,.0001089,97.8856,351.9709,82.1946,277.9399,0,U,31598,999,2859,.15832E-3,.1765E-4,0
TERRASAR-X,2007-026A,2026-06-08T11:55:50.528640,15.19149352,.00017018,97.4450,167.3291,82.8468,277.2960,0,U,31698,999,5190,.36934369E-4,.709E-5,0
WORLDVIEW-1 (WV-1),2007-041A,2026-06-09T03:38:15.196992,15.24176916,.0002986,97.3862,280.0121,43.6566,316.4908,0,U,32060,999,4165,.22434E-3,.5392E-4,0
YAOGAN-3,2007-055A,2026-06-09T04:58:11.887392,14.90748644,.0001843,97.8159,190.1639,84.1464,275.9964,0,U,32289,999,468,.14146E-3,.1334E-4,0
COSMO-SKYMED 2,2007-059A,2026-06-09T04:40:29.651232,14.82148166,.0001424,97.8885,343.9089,84.7301,275.4075,0,U,32376,999,82,.4949E-4,.342E-5,0
RADARSAT-2,2007-061A,2026-06-09T04:49:32.937888,14.29983637,.0001308,98.5782,167.2476,82.0971,278.0360,0,U,32382,999,96481,.75151E-4,.15E-5,0
CARTOSAT-2A,2008-021A,2026-06-09T04:47:44.910240,14.79226892,.0012754,97.7636,209.1811,132.2457,227.9839,0,U,32783,999,97762,.79652E-4,.542E-5,0
HUANJING 1A (HJ-1A),2008-041A,2026-06-09T05:02:07.979712,14.83970232,.0019243,97.6686,146.3575,159.7782,200.4199,0,U,33320,999,95722,.1646E-3,.1322E-4,0
HUANJING 1B (HJ-1B),2008-041B,2026-06-09T05:49:32.869920,14.83301614,.0035293,97.6521,149.5844,207.6128,152.3213,0,U,33321,999,95723,.46431E-4,.332E-5,0
GEOEYE 1,2008-042A,2026-06-09T02:10:59.177280,14.64718086,.0005567,98.1235,234.1246,88.8971,271.2870,0,U,33331,999,94896,.83486E-4,.397E-5,0
THEOS,2008-049A,2026-06-09T05:14:57.374304,14.20132278,.0001266,98.5571,217.7609,79.4003,280.7317,0,U,33396,999,91683,.94885E-4,.16E-5,0
COSMO-SKYMED 3,2008-054A,2026-06-09T04:11:55.938336,15.06896636,.0014316,97.8291,18.6130,297.2196,62.7572,0,U,33412,999,95573,.86802E-4,.1232E-4,0
YAOGAN-4,2008-061A,2026-06-09T03:20:06.974304,14.83184447,.0015748,97.9307,93.7089,96.2000,264.1008,0,U,33446,999,94447,.11531E-3,.889E-5,0
GOSAT (IBUKI),2009-002A,2026-06-09T00:35:32.644032,14.67538513,.000161,98.0882,271.2083,90.3117,269.8272,0,U,33492,999,93026,.18885E-3,.1023E-4,0
DEIMOS-1,2009-041A,2026-06-09T04:23:10.968576,14.75227652,.0001145,97.7400,317.7580,138.3723,221.7574,0,U,35681,999,90570,.26254E-4,.13E-5,0
DUBAISAT-1,2009-041B,2026-06-09T02:02:12.386976,14.75110815,.0011747,98.0042,293.4321,96.7289,263.5257,0,U,35682,999,90390,.11225E-3,.707E-5,0
